[{"OBJECT_NAME":"STARLINK-30291","OBJECT_ID":"2023-141S","EPOCH":"2026-03-09T20:28:29.974080","MEAN_MOTION":15.30188197,"ECCENTRICITY":0.00011986,"INCLINATION":53.1592,"RA_OF_ASC_NODE":283.3202,"ARG_OF_PERICENTER":74.2697,"MEAN_ANOMALY":285.8436,"EPHEMERIS_TYPE":0,"CLASSIFICATION_TYPE":"U","NORAD_CAT_ID":57856,"ELEMENT_SET_NO":999,"REV_AT_EPOCH":14035,"BSTAR":1.7704091e-5,"MEAN_MOTION_DOT":1.65e-6,"MEAN_MOTION_DDOT":0},{"OBJECT_NAME":"COSMOS 1408 DEB","OBJECT_ID":"1982-092ADS","EPOCH":"2026-03-09T15:14:01.495392","MEAN_MOTION":15.34178134,"ECCENTRICITY":0.0122957,"INCLINATION":82.1939,"RA_OF_ASC_NODE":124.7493,"ARG_OF_PERICENTER":254.6382,"MEAN_ANOMALY":104.1246,"EPHEMERIS_TYPE":0,"CLASSIFICATION_TYPE":"U","NORAD_CAT_ID":50404,"ELEMENT_SET_NO":999,"REV_AT_EPOCH":22516,"BSTAR":0.0029669,"MEAN_MOTION_DOT":0.00127192,"MEAN_MOTION_DDOT":0}]
